[{"OBJECT_NAME":"SITRO-AIS 8 (ANOKHIN)","OBJECT_ID":"2023-091AD","EPOCH":"2026-03-09T23:44:40.058592","MEAN_MOTION":15.29359179,"ECCENTRICITY":0.0012509,"INCLINATION":97.5169,"RA_OF_ASC_NODE":133.2823,"ARG_OF_PERICENTER":92.0171,"MEAN_ANOMALY":268.2501,"EPHEMERIS_TYPE":0,"CLASSIFICATION_TYPE":"U","NORAD_CAT_ID":57193,"ELEMENT_SET_NO":999,"REV_AT_EPOCH":14927,"BSTAR":0.00064982524,"MEAN_MOTION_DOT":0.00018494,"MEAN_MOTION_DDOT":0},{"OBJECT_NAME":"STARLINK-31362","OBJECT_ID":"2024-027E","EPOCH":"2026-03-09T22:45:10.128960","MEAN_MOTION":15.30188128,"ECCENTRICITY":9.209e-5,"INCLINATION":53.158,"RA_OF_ASC_NODE":308.7251,"ARG_OF_PERICENTER":112.4905,"MEAN_ANOMALY":247.6193,"EPHEMERIS_TYPE":0,"CLASSIFICATION_TYPE":"U","NORAD_CAT_ID":58935,"ELEMENT_SET_NO":999,"REV_AT_EPOCH":11736,"BSTAR":0.0002488704,"MEAN_MOTION_DOT":7.016e-5,"MEAN_MOTION_DDOT":0}]
